ONEWEB-0144             
1 47290U 20100AJ  25005.95800711 -.00000353  00000+0 -10180-2 0  9992
2 47290  87.8876  95.6273 0002028 111.6903 248.4442 13.12441353195418
ONEWEB-0145             
1 47291U 20100AK  25006.00505831  .00000498  00000+0  13493-2 0  9993
2 47291  87.8880  95.6433 0001835 109.9133 250.2194 13.12441816195613
ONEWEB-0146             
1 47292U 20100AL  25005.46815117  .00000450  00000+0  12162-2 0  9994
2 47292  87.8880  95.7356 0001399  97.9716 262.1571 13.12441709195451
ONEWEB-0147             
1 47293U 20100AM  25005.28161248 -.00000168  00000+0 -50229-3 0  9999
2 47293  87.8876  95.7588 0001727 116.1917 243.9389 13.12444518195327
ONEWEB-0115             
1 48042U 21025A   25006.40732480 -.00000521  00000+0 -14615-2 0  9997
2 48042  87.8904  64.9839 0001753  99.4585 260.6743 13.13469412184455
ONEWEB-0152             
1 48043U 21025B   25006.19148660 -.00000191  00000+0 -55665-3 0  9999
2 48043  87.8909  65.0333 0001719 102.4840 257.6482 13.13470908184383
ONEWEB-0153             
1 48044U 21025C   25005.40749810 -.00000171  00000+0 -50322-3 0  9990
2 48044  87.8912  65.1826 0001883 101.7155 258.4186 13.13470165184261
ONEWEB-0154             
1 48045U 21025D   25005.40432343 -.00000109  00000+0 -33407-3 0  9997
2 48045  87.8909  65.1884 0001751 102.2177 257.9148 13.13469902184221
